ORBCOMM FM20            
1 25416U 98046D   25137.60216259  .00001060  00000+0  40052-3 0  9994
2 25416  44.9954 326.1083 0001239 136.1424 223.9522 14.37160314399864
ORBCOMM FM16            
1 25417U 98046E   25137.56474059  .00001517  00000+0  53421-3 0  9995
2 25417  44.9947 318.2564 0005142 145.6176 214.5006 14.38840893399848
ORBCOMM FM15            
1 25418U 98046F   25137.53332015  .00001164  00000+0  42366-3 0  9992
2 25418  44.9977 323.4582 0004760 145.7537 214.3619 14.38487016399838
ORBCOMM FM14            
1 25419U 98046G   25137.55874984  .00001373  00000+0  48806-3 0  9998
2 25419  44.9969 321.6626 0003559 140.1849 219.9261 14.38843647399806
ORBCOMM FM13            
1 25420U 98046H   25137.57698516  .00001239  00000+0  45579-3 0  9992
2 25420  44.9984 329.2566 0005484 125.1436 234.9927 14.37614180398831
ORBCOMM FM21            
1 25475U 98053A   25137.50697542  .00001144  00000+0  42748-3 0  9991
2 25475  45.0094  54.7765 0001937  21.0253 339.0675 14.37294188392839
ORBCOMM FM22            
1 25476U 98053B   25137.07981041  .00001104  00000+0  40569-3 0  9999
2 25476  45.0085  51.9010 0003510  43.5526 316.5599 14.38313376392795
ORBCOMM FM23            
1 25477U 98053C   25137.51153935  .00001358  00000+0  49652-3 0  9995
2 25477  45.0090  56.9207 0002797  33.2728 326.8295 14.37470583392982
